[{"OBJECT_NAME":"STARLINK-5591","OBJECT_ID":"2023-028AG","EPOCH":"2026-03-09T19:46:08.982048","MEAN_MOTION":14.98331041,"ECCENTRICITY":0.00030516,"INCLINATION":69.9995,"RA_OF_ASC_NODE":224.0962,"ARG_OF_PERICENTER":271.1011,"MEAN_ANOMALY":88.9798,"EPHEMERIS_TYPE":0,"CLASSIFICATION_TYPE":"U","NORAD_CAT_ID":55771,"ELEMENT_SET_NO":999,"REV_AT_EPOCH":16655,"BSTAR":0.00012836784,"MEAN_MOTION_DOT":1.439e-5,"MEAN_MOTION_DDOT":0},{"OBJECT_NAME":"DELTA 1 DEB","OBJECT_ID":"1977-065M","EPOCH":"2026-03-09T01:35:26.833920","MEAN_MOTION":14.02258817,"ECCENTRICITY":0.04653663,"INCLINATION":29.2135,"RA_OF_ASC_NODE":334.0643,"ARG_OF_PERICENTER":210.7683,"MEAN_ANOMALY":146.4816,"EPHEMERIS_TYPE":0,"CLASSIFICATION_TYPE":"U","NORAD_CAT_ID":10183,"ELEMENT_SET_NO":999,"REV_AT_EPOCH":39655,"BSTAR":0.00095577742,"MEAN_MOTION_DOT":4.037e-5,"MEAN_MOTION_DDOT":0}]
